ONEWEB-0202             
1 48224U 21031Q   24053.61188608 -.00000424  00000+0 -11769-2 0  9996
2 48224  87.8916  98.0175 0001384  71.5364 288.5916 13.14503011137271
ONEWEB-0204             
1 48225U 21031R   24053.56986903  .00000326  00000+0  84389-3 0  9993
2 48225  87.8915  98.0391 0002270 108.8796 251.2580 13.14503305137167
ONEWEB-0205             
1 48226U 21031S   24053.54529404 -.00000071  00000+0 -22723-3 0  9994
2 48226  87.8917  98.0141 0001708 101.3703 258.7618 13.14503494137178
ONEWEB-0206             
1 48227U 21031T   24053.59444697 -.00000056  00000+0 -18605-3 0  9997
2 48227  87.8915  97.9967 0001754 103.8230 256.3095 13.14502648137133
ONEWEB-0182             
1 48228U 21031U   24053.58968648  .00000075  00000+0  16753-3 0  9995
2 48228  87.8918  98.0200 0002048 101.8429 258.2931 13.14500732137349
ONEWEB-0181             
1 48230U 21031W   24053.57858773  .00000263  00000+0  67518-3 0  9998
2 48230  87.8917  98.0559 0001780  92.3558 267.7775 13.14500910137144
